STARLINK-31592          
1 59467U 24068N   26068.25794513 -.00001348  00000+0 -39479-4 0  9992
2 59467  43.0027  37.2216 0001182 275.3855  84.6862 15.27575645108456
FLOCK 4G-2              
1 62661U 25009BE  26068.66207492  .00013752  00000+0  51068-3 0  9995
2 62661  97.4044 151.2221 0003181 329.2677  30.8376 15.27675260121321
